{
  "type": "FeatureCollection",
  "features": [
    {
      "type": "Feature",
      "properties": {
        "norad_id": 66583,
        "name": "STARLINK-35941",
        "group": "last-30-days",
        "lat": -26.31779148066016,
        "lon": 17.307582663724727,
        "alt_km": 366.74439630035886,
        "timestamp": "2025-12-05T05:43:13.897399+00:00",
        "meta_object_name": "STARLINK-35941",
        "meta_object_id": "2025-268AC",
        "meta_epoch": "2025-12-04T18:00:02.000160",
        "meta_mean_motion": 15.69901123,
        "meta_eccentricity": 0.0001699,
        "meta_inclination": 42.9989,
        "meta_ra_of_asc_node": 168.1831,
        "meta_arg_of_pericenter": 269.8752,
        "meta_mean_anomaly": 69.2288,
        "meta_ephemeris_type": 0,
        "meta_classification_type": "U",
        "meta_norad_cat_id": 66583,
        "meta_element_set_no": 999,
        "meta_rev_at_epoch": 338,
        "meta_bstar": -0.017755,
        "meta_mean_motion_dot": -0.01939207,
        "meta_mean_motion_ddot": 0,
        "tle_line1": "1 66583U 25268AC  25338.75002315 -.01939207  00000+0 -17755-1 0  9993",
        "tle_line2": "2 66583  42.9989 168.1831 0001699 269.8752  69.2288 15.69901123  3389"
      },
      "geometry": {
        "type": "Point",
        "coordinates": [
          17.307582663724727,
          -26.31779148066016
        ]
      }
    },
    {
      "type": "Feature",
      "properties": {
        "norad_id": 66584,
        "name": "STARLINK-35939",
        "group": "last-30-days",
        "lat": -27.41461751171697,
        "lon": 19.065782319525944,
        "alt_km": 366.72496000218325,
        "timestamp": "2025-12-05T05:43:13.897409+00:00",
        "meta_object_name": "STARLINK-35939",
        "meta_object_id": "2025-268AD",
        "meta_epoch": "2025-12-04T18:00:02.000160",
        "meta_mean_motion": 15.69900121,
        "meta_eccentricity": 0.0001688,
        "meta_inclination": 42.999,
        "meta_ra_of_asc_node": 168.1787,
        "meta_arg_of_pericenter": 267.1993,
        "meta_mean_anomaly": 73.8217,
        "meta_ephemeris_type": 0,
        "meta_classification_type": "U",
        "meta_norad_cat_id": 66584,
        "meta_element_set_no": 999,
        "meta_rev_at_epoch": 338,
        "meta_bstar": -0.017733,
        "meta_mean_motion_dot": -0.01937064,
        "meta_mean_motion_ddot": 0,
        "tle_line1": "1 66584U 25268AD  25338.75002315 -.01937064  00000+0 -17733-1 0  9999",
        "tle_line2": "2 66584  42.9990 168.1787 0001688 267.1993  73.8217 15.69900121  3388"
      },
      "geometry": {
        "type": "Point",
        "coordinates": [
          19.065782319525944,
          -27.41461751171697
        ]
      }
    },
    {
      "type": "Feature",
      "properties": {
        "norad_id": 66585,
        "name": "STARLINK-35963",
        "group": "last-30-days",
        "lat": -28.488637738051633,
        "lon": 20.858911427647588,
        "alt_km": 366.7962189550326,
        "timestamp": "2025-12-05T05:43:13.897418+00:00",
        "meta_object_name": "STARLINK-35963",
        "meta_object_id": "2025-268AE",
        "meta_epoch": "2025-12-04T18:00:02.000160",
        "meta_mean_motion": 15.69907438,
        "meta_eccentricity": 0.0001646,
        "meta_inclination": 42.9988,
        "meta_ra_of_asc_node": 168.1742,
        "meta_arg_of_pericenter": 267.8475,
        "meta_mean_anomaly": 75.0855,
        "meta_ephemeris_type": 0,
        "meta_classification_type": "U",
        "meta_norad_cat_id": 66585,
        "meta_element_set_no": 999,
        "meta_rev_at_epoch": 338,
        "meta_bstar": -0.017794,
        "meta_mean_motion_dot": -0.01943403,
        "meta_mean_motion_ddot": 0,
        "tle_line1": "1 66585U 25268AE  25338.75002315 -.01943403  00000+0 -17794-1 0  9991",
        "tle_line2": "2 66585  42.9988 168.1742 0001646 267.8475  75.0855 15.69907438  3383"
      },
      "geometry": {
        "type": "Point",
        "coordinates": [
          20.858911427647588,
          -28.488637738051633
        ]
      }
    },
    {
      "type": "Feature",
      "properties": {
        "norad_id": 66586,
        "name": "TJS-21",
        "group": "last-30-days",
        "lat": 43.14267214708635,
        "lon": -138.8580370220459,
        "alt_km": 36096.03589279028,
        "timestamp": "2025-12-05T05:43:13.897435+00:00",
        "meta_object_name": "TJS-21",
        "meta_object_id": "2025-269A",
        "meta_epoch": "2025-11-22T00:38:56.616288",
        "meta_mean_motion": 2.0099221,
        "meta_eccentricity": 0.75179873,
        "meta_inclination": 51.0366,
        "meta_ra_of_asc_node": 174.7096,
        "meta_arg_of_pericenter": 225.0489,
        "meta_mean_anomaly": 41.6572,
        "meta_ephemeris_type": 0,
        "meta_classification_type": "U",
        "meta_norad_cat_id": 66586,
        "meta_element_set_no": 999,
        "meta_rev_at_epoch": 2,
        "meta_bstar": 0.00053569978,
        "meta_mean_motion_dot": 3.197e-05,
        "meta_mean_motion_ddot": 0,
        "tle_line1": "1 66586U 25269A   25326.02704417  .00003197  00000+0  53570-3 0  9990",
        "tle_line2": "2 66586  51.0366 174.7096 7517987 225.0489  41.6572  2.00992210    24"
      },
      "geometry": {
        "type": "Point",
        "coordinates": [
          -138.8580370220459,
          43.14267214708635
        ]
      }
    },
    {
      "type": "Feature",
      "properties": {
        "norad_id": 66587,
        "name": "CZ-3B R/B",
        "group": "last-30-days",
        "lat": 48.98089735379879,
        "lon": -121.47494839975171,
        "alt_km": 27842.48340569266,
        "timestamp": "2025-12-05T05:43:13.897454+00:00",
        "meta_object_name": "CZ-3B R/B",
        "meta_object_id": "2025-269B",
        "meta_epoch": "2025-12-02T10:16:46.437600",
        "meta_mean_motion": 2.0223182,
        "meta_eccentricity": 0.75203475,
        "meta_inclination": 51.3575,
        "meta_ra_of_asc_node": 172.0321,
        "meta_arg_of_pericenter": 226.8728,
        "meta_mean_anomaly": 39.3228,
        "meta_ephemeris_type": 0,
        "meta_classification_type": "U",
        "meta_norad_cat_id": 66587,
        "meta_element_set_no": 999,
        "meta_rev_at_epoch": 24,
        "meta_bstar": 0.0019543247,
        "meta_mean_motion_dot": 0.00047329,
        "meta_mean_motion_ddot": -2.45602e-07,
        "tle_line1": "1 66587U 25269B   25336.42831525  .00047329 -24560-6  19543-2 0  9998",
        "tle_line2": "2 66587  51.3575 172.0321 7520347 226.8728  39.3228  2.02231820   242"
      },
      "geometry": {
        "type": "Point",
        "coordinates": [
          -121.47494839975171,
          48.98089735379879
        ]
      }
    },
    {
      "type": "Feature",
      "properties": {
        "norad_id": 66588,
        "name": "STARLINK-36076",
        "group": "last-30-days",
        "lat": -7.088384205071007,
        "lon": -130.49101003858172,
        "alt_km": 343.99681069078815,
        "timestamp": "2025-12-05T05:43:13.897466+00:00",
        "meta_object_name": "STARLINK-36076",
        "meta_object_id": "2025-270A",
        "meta_epoch": "2025-12-04T16:04:08.478048",
        "meta_mean_motion": 15.7508018,
        "meta_eccentricity": 0.0001968,
        "meta_inclination": 42.9983,
        "meta_ra_of_asc_node": 240.6311,
        "meta_arg_of_pericenter": 266.0968,
        "meta_mean_anomaly": 93.9676,
        "meta_ephemeris_type": 0,
        "meta_classification_type": "U",
        "meta_norad_cat_id": 66588,
        "meta_element_set_no": 999,
        "meta_rev_at_epoch": 308,
        "meta_bstar": 0.0016177,
        "meta_mean_motion_dot": 0.00256176,
        "meta_mean_motion_ddot": 0,
        "tle_line1": "1 66588U 25270A   25338.66954257  .00256176  00000+0  16177-2 0  9994",
        "tle_line2": "2 66588  42.9983 240.6311 0001968 266.0968  93.9676 15.75080180  3084"
      },
      "geometry": {
        "type": "Point",
        "coordinates": [
          -130.49101003858172,
          -7.088384205071007
        ]
      }
    },
    {
      "type": "Feature",
      "properties": {
        "norad_id": 66589,
        "name": "STARLINK-35447",
        "group": "last-30-days",
        "lat": -4.4435948931587355,
        "lon": -127.6152082816702,
        "alt_km": 343.6868751398724,
        "timestamp": "2025-12-05T05:43:13.897479+00:00",
        "meta_object_name": "STARLINK-35447",
        "meta_object_id": "2025-270B",
        "meta_epoch": "2025-12-04T16:03:09.961056",
        "meta_mean_motion": 15.75079945,
        "meta_eccentricity": 0.0001862,
        "meta_inclination": 42.998,
        "meta_ra_of_asc_node": 240.626,
        "meta_arg_of_pericenter": 262.6758,
        "meta_mean_anomaly": 97.39,
        "meta_ephemeris_type": 0,
        "meta_classification_type": "U",
        "meta_norad_cat_id": 66589,
        "meta_element_set_no": 999,
        "meta_rev_at_epoch": 319,
        "meta_bstar": 0.0019354,
        "meta_mean_motion_dot": 0.00308504,
        "meta_mean_motion_ddot": 0,
        "tle_line1": "1 66589U 25270B   25338.66886529  .00308504  00000+0  19354-2 0  9994",
        "tle_line2": "2 66589  42.9980 240.6260 0001862 262.6758  97.3900 15.75079945  3194"
      },
      "geometry": {
        "type": "Point",
        "coordinates": [
          -127.6152082816702,
          -4.4435948931587355
        ]
      }
    }
  ]
}